STARLINK-1722
1 16361C 20062AP  21326.15020013 -.00018852  00000-0 -12634-2 0  3264
2 16361  53.0518 173.0753 0001928  83.6277 221.2170 15.06406558    19
